STARLINK-25             
1 44239C 19029E   20071.51899228  .00001721  00000-0  98550-4 0   710
2 44239  53.0073 295.1780 0002517  86.8589 217.2527 15.12124138    18